NORAD_CAT_ID,OBJECT_NAME,OBJECT_TYPE,EPOCH,MEAN_MOTION,ECCENTRICITY,INCLINATION,RA_OF_ASC_NODE,ARG_OF_PERICENTER,MEAN_ANOMALY,BSTAR,MEAN_MOTION_DOT,MEAN_MOTION_DDOT,TLE_LINE0,TLE_LINE1,TLE_LINE2,SEMIMAJOR_AXIS,PERIOD,APOGEE,PERIGEE,DECAYED
53907.0,STARLINK-5063,PAYLOAD,2023-01-15 04:16:59,15.088231,0.0001281,53.219,84.0351,77.3189,282.7947,-8.1652e-05,-1.586e-05,0.0,0 STARLINK-5063,1 53907U 22119X   23015.17846446 -.00001586  00000-0 -81652-4 0  9998,2 53907  53.2190  84.0351 0001281  77.3189 282.7947 15.08823100 17739,6917.932,95.439,540.683,538.911,0.0
53907.0,STARLINK-5063,PAYLOAD,2023-01-15 10:38:31,15.08832425,0.0001361,53.2182,82.8451,76.40100000000001,283.7134,-4.5631e-05,-1.014e-05,0.0,0 STARLINK-5063,1 53907U 22119X   23015.44341802 -.00001014  00000-0 -45631-4 0  9997,2 53907  53.2182  82.8451 0001361  76.4010 283.7134 15.08832425 17772,6917.904,95.438,540.71,538.827,0.0
53907.0,STARLINK-5063,PAYLOAD,2023-01-15 21:46:12,15.08846113,0.0001576999999999,53.2188,80.7681,67.9711,292.1449,-4.5345e-05,-1.01e-05,0.0,0 STARLINK-5063,1 53907U 22119X   23015.90709083 -.00001010  00000-0 -45345-4 0  9995,2 53907  53.2188  80.7681 0001577  67.9711 292.1449 15.08846113 18269,6917.861999999999,95.437,540.818,538.636,0.0
53907.0,STARLINK-5063,PAYLOAD,2023-01-15 23:21:35,15.08849702,0.0001273,53.2179,80.467,75.9615,284.1519,-6.1322e-05,-1.264e-05,0.0,0 STARLINK-5063,1 53907U 22119X   23015.97332690 -.00001264  00000-0 -61322-4 0  9992,2 53907  53.2179  80.4670 0001273  75.9615 284.1519 15.08849702 17859,6917.851,95.437,540.596,538.835,0.0
53907.0,STARLINK-5063,PAYLOAD,2023-01-16 10:29:15,15.08865787,0.0001281,53.2194,78.3858,72.2737,287.8395,0.00015968,2.256e-05,0.0,0 STARLINK-5063,1 53907U 22119X   23016.43698870  .00002256  00000-0  15968-3 0  9993,2 53907  53.2194  78.3858 0001281  72.2737 287.8395 15.08865787 17925,6917.802,95.436,540.553,538.78,0.0
53907.0,STARLINK-5063,PAYLOAD,2023-01-16 12:04:38,15.08866854,0.0001278,53.2192,78.0877,74.2516,285.8617,0.00015956,2.254e-05,0.0,0 STARLINK-5063,1 53907U 22119X   23016.50322716  .00002254  00000-0  15956-3 0  9999,2 53907  53.2192  78.0877 0001278  74.2516 285.8617 15.08866854 18353,6917.798000000001,95.436,540.547,538.779,0.0
53907.0,STARLINK-5063,PAYLOAD,2023-01-16 15:15:24,15.08872537,0.0001177,53.2193,77.4925,95.2444,264.8683,0.00019688,2.85e-05,0.0,0 STARLINK-5063,1 53907U 22119X   23016.63569847  .00002850  00000-0  19688-3 0  9999,2 53907  53.2193  77.4925 0001177  95.2444 264.8683 15.08872537 17952,6917.781,95.435,540.46,538.832,0.0
53907.0,STARLINK-5063,PAYLOAD,2023-01-17 03:58:34,15.08805412,0.0001220999999999,53.219,75.1157,68.5427,291.5695,-0.00019426,-3.375e-05,0.0,0 STARLINK-5063,1 53907U 22119X   23017.16567816 -.00003375  00000-0 -19426-3 0  9997,2 53907  53.2190  75.1157 0001221  68.5427 291.5695 15.08805412 18033,6917.986,95.44,540.696,539.006,0.0
53907.0,STARLINK-5063,PAYLOAD,2023-01-17 10:20:07,15.08804748,0.0001032,53.2191,73.9243,96.705,263.406,-0.0001115999999999,-2.062e-05,0.0,0 STARLINK-5063,1 53907U 22119X   23017.43063887 -.00002062  00000-0 -11160-3 0  9995,2 53907  53.2191  73.9243 0001032  96.7050 263.4060 15.08804748 18496,6917.988,95.44,540.567,539.139,0.0
53907.0,STARLINK-5063,PAYLOAD,2023-01-17 23:03:11,15.08829406,0.000127,53.2188,71.546,95.0021,265.1116,-7.1969e-05,-1.433e-05,0.0,0 STARLINK-5063,1 53907U 22119X   23017.96054639 -.00001433  00000-0 -71969-4 0  9993,2 53907  53.2188  71.5460 0001270  95.0021 265.1116 15.08829406 18153,6917.9130000000005,95.438,540.656,538.899,0.0
53907.0,STARLINK-5063,PAYLOAD,2023-01-18 10:10:51,15.08854234,0.0001314,53.2192,69.464,117.1827,242.93,4.3178e-05,4e-06,0.0,0 STARLINK-5063,1 53907U 22119X   23018.42420519  .00000400  00000-0  43178-4 0  9991,2 53907  53.2192  69.4640 0001314 117.1827 242.9300 15.08854234 18226,6917.837,95.437,540.611,538.793,0.0
53907.0,STARLINK-5063,PAYLOAD,2023-01-18 13:21:37,15.0886419,0.0001118,53.2192,68.869,110.9952,249.1159,-9.0685e-06,-4.32e-06,0.0,0 STARLINK-5063,1 53907U 22119X   23018.55668131 -.00000432  00000-0 -90685-5 0  9992,2 53907  53.2192  68.8690 0001118 110.9952 249.1159 15.08864190 18667,6917.806,95.436,540.445,538.898,0.0
53907.0,STARLINK-5063,PAYLOAD,2023-01-18 19:43:10,15.08854093,0.0001992,53.2194,67.6801,86.2402,273.8818,-9.1626e-05,-1.747e-05,0.0,0 STARLINK-5063,1 53907U 22119X   23018.82164939 -.00001747  00000-0 -91626-4 0  9994,2 53907  53.2194  67.6801 0001992  86.2402 273.8818 15.08854093 18707,6917.837,95.437,541.08,538.3240000000001,0.0
53907.0,STARLINK-5063,PAYLOAD,2023-01-19 03:40:06,15.08822226,8.4e-05,53.2209,66.1962,103.0777,257.0309,0.00020505,2.976e-05,0.0,0 STARLINK-5063,1 53907U 22119X   23019.15285826  .00002976  00000-0  20505-3 0  9990,2 53907  53.2209  66.1962 0000840 103.0777 257.0309 15.08822226 18331,6917.935,95.439,540.381,539.219,0.0
53907.0,STARLINK-5063,PAYLOAD,2023-01-19 10:01:38,15.08832987,0.0001778,53.2197,65.0079,112.0233,248.0948,0.00026286,3.897e-05,0.0,0 STARLINK-5063,1 53907U 22119X   23019.41781017  .00003897  00000-0  26286-3 0  9997,2 53907  53.2197  65.0079 0001778 112.0233 248.0948 15.08832987 18370,6917.901999999999,95.438,540.997,538.5369999999999,0.0
53907.0,STARLINK-5063,PAYLOAD,2023-01-19 19:33:58,15.08834491,0.0001254,53.2192,63.2216,107.022,253.091,4.6447e-05,4.51e-06,0.0,0 STARLINK-5063,1 53907U 22119X   23019.81525749  .00000451  00000-0  46447-4 0  9994,2 53907  53.2192  63.2216 0001254 107.0220 253.0910 15.08834491 18431,6917.897,95.438,540.63,538.895,0.0
53907.0,STARLINK-5063,PAYLOAD,2023-01-20 09:52:26,15.08837967,0.0001525,53.2204,60.5469,122.5611,237.5529,-0.00011089,-2.052e-05,0.0,0 STARLINK-5063,1 53907U 22119X   23020.41142256 -.00002052  00000-0 -11089-3 0  9994,2 53907  53.2204  60.5469 0001525 122.5611 237.5529 15.08837967 18942,6917.887,95.438,540.807,538.697,0.0
53907.0,STARLINK-5063,PAYLOAD,2023-01-20 22:35:31,15.08837648,0.000134,53.2206,58.1679,114.5406,245.5726,-3.1364e-05,-7.87e-06,0.0,0 STARLINK-5063,1 53907U 22119X   23020.94133885 -.00000787  00000-0 -31364-4 0  9992,2 53907  53.2206  58.1679 0001340 114.5406 245.5726 15.08837648 18605,6917.888000000001,95.438,540.68,538.826,0.0
53907.0,STARLINK-5063,PAYLOAD,2023-01-21 11:18:36,15.08845638,0.0001272,53.2194,55.7853,110.8965,249.2163,-7.0191e-06,-4e-06,0.0,0 STARLINK-5063,1 53907U 22119X   23021.47125392 -.00000400  00000-0 -70191-5 0  9999,2 53907  53.2194  55.7853 0001272 110.8965 249.2163 15.08845638 18683,6917.863,95.437,540.6080000000001,538.8480000000001,0.0
53907.0,STARLINK-5063,PAYLOAD,2023-01-22 19:06:19,15.08835638,0.0001134,53.2208,49.8422,108.1055,252.0061,1.2887e-06,-2.67e-06,0.0,0 STARLINK-5063,1 53907U 22119X   23022.79605996 -.00000267  00000-0  12887-5 0  9996,2 53907  53.2208  49.8422 0001134 108.1055 252.0061 15.08835638 18882,6917.894,95.438,540.543,538.974,0.0
53907.0,STARLINK-5063,PAYLOAD,2023-01-23 01:27:52,15.0882888,0.0001395,53.2206,48.6495,121.9751,238.1377,-2.7116e-05,-7.19e-06,0.0,0 STARLINK-5063,1 53907U 22119X   23023.06102628 -.00000719  00000-0 -27116-4 0  9994,2 53907  53.2206  48.6495 0001395 121.9751 238.1377 15.08828880 18923,6917.914000000001,95.438,540.744,538.814,0.0
53907.0,STARLINK-5063,PAYLOAD,2023-01-23 18:57:06,15.08837706,0.0001165999999999,53.2196,45.3788,109.4746,250.6372,-7.3913e-05,-1.464e-05,0.0,0 STARLINK-5063,1 53907U 22119X   23023.78966421 -.00001464  00000-0 -73913-4 0  9996,2 53907  53.2196  45.3788 0001166 109.4746 250.6372 15.08837706 19035,6917.887,95.438,540.559,538.946,0.0
53907.0,STARLINK-5063,PAYLOAD,2023-01-24 07:40:11,15.088481,0.0001375999999999,53.22,42.9984,102.7317,257.3829,-6.2038e-05,-1.275e-05,0.0,0 STARLINK-5063,1 53907U 22119X   23024.31957978 -.00001275  00000-0 -62038-4 0  9999,2 53907  53.2200  42.9984 0001376 102.7317 257.3829 15.08848100 19115,6917.856,95.437,540.673,538.769,0.0
53907.0,STARLINK-5063,PAYLOAD,2023-01-25 01:09:26,15.08829094,0.0001274999999999,53.2186,39.7266,105.6541,254.4591,5.285e-05,5.53e-06,0.0,0 STARLINK-5063,1 53907U 22119X   23025.04822769  .00000553  00000-0  52850-4 0  9996,2 53907  53.2186  39.7266 0001275 105.6541 254.4591 15.08829094 19221,6917.914000000001,95.438,540.661,538.8969999999999,0.0
53907.0,STARLINK-5063,PAYLOAD,2023-01-25 07:30:59,15.08836398,0.0001176,53.2196,38.5393,101.1471,258.9653,8.7291e-05,1.102e-05,0.0,0 STARLINK-5063,1 53907U 22119X   23025.31318297  .00001102  00000-0  87291-4 0  9990,2 53907  53.2196  38.5393 0001176 101.1471 258.9653 15.08836398 19260,6917.891,95.438,540.57,538.943,0.0
53907.0,STARLINK-5063,PAYLOAD,2023-01-26 07:21:45,15.08843278,0.0001127999999999,53.2196,34.0795,92.4153,267.6968,5.2738e-05,5.52e-06,0.0,0 STARLINK-5063,1 53907U 22119X   23026.30678213  .00000552  00000-0  52738-4 0  9993,2 53907  53.2196  34.0795 0001128  92.4153 267.6968 15.08843278 19837,6917.87,95.437,540.516,538.955,0.0
53907.0,STARLINK-5063,PAYLOAD,2023-01-27 00:51:01,15.08832699,0.0001114,53.2196,30.8085,91.7966,268.3154,-4.5803e-05,-1.017e-05,0.0,0 STARLINK-5063,1 53907U 22119X   23027.03543317 -.00001017  00000-0 -45803-4 0  9994,2 53907  53.2196  30.8085 0001114  91.7966 268.3154 15.08832699 19528,6917.903,95.438,540.538,538.997,0.0
53907.0,STARLINK-5063,PAYLOAD,2023-01-27 07:12:33,15.0883547,0.0001117,53.2196,29.6185,89.6312,270.4808,-8.410599999999999e-06,-4.22e-06,0.0,0 STARLINK-5063,1 53907U 22119X   23027.30039070 -.00000422  00000-0 -84106-5 0  9999,2 53907  53.2196  29.6185 0001117  89.6312 270.4808 15.08835470 19989,6917.894,95.438,540.5319999999999,538.987,0.0
53907.0,STARLINK-5063,PAYLOAD,2023-01-28 08:38:44,15.08823583,0.0001165,53.2191,24.8576,93.5907,266.5218,0.00022948,3.365e-05,0.0,0 STARLINK-5063,1 53907U 22119X   23028.36023375  .00003365  00000-0  22948-3 0  9998,2 53907  53.2191  24.8576 0001165  93.5907 266.5218 15.08823583 19727,6917.931,95.439,540.602,538.99,0.0
